[{"OBJECT_NAME":"ASTROCAST-0103","OBJECT_ID":"2021-006CC","EPOCH":"2026-03-09T16:48:48.818592","MEAN_MOTION":15.73114428,"ECCENTRICITY":0.00057063,"INCLINATION":97.2627,"RA_OF_ASC_NODE":138.0845,"ARG_OF_PERICENTER":147.86,"MEAN_ANOMALY":212.3013,"EPHEMERIS_TYPE":0,"CLASSIFICATION_TYPE":"U","NORAD_CAT_ID":47487,"ELEMENT_SET_NO":999,"REV_AT_EPOCH":28552,"BSTAR":0.00063759595,"MEAN_MOTION_DOT":0.00087857,"MEAN_MOTION_DDOT":0},{"OBJECT_NAME":"STARLINK-11605 [DTC]","OBJECT_ID":"2025-043C","EPOCH":"2026-03-09T21:40:31.016064","MEAN_MOTION":15.70885238,"ECCENTRICITY":0.00012342,"INCLINATION":42.9995,"RA_OF_ASC_NODE":249.6145,"ARG_OF_PERICENTER":291.1638,"MEAN_ANOMALY":68.9098,"EPHEMERIS_TYPE":0,"CLASSIFICATION_TYPE":"U","NORAD_CAT_ID":63134,"ELEMENT_SET_NO":999,"REV_AT_EPOCH":5938,"BSTAR":0.0017646349,"MEAN_MOTION_DOT":0.00232878,"MEAN_MOTION_DDOT":0}]
